LEMUR-2-KUTAR           
1 67363U 26004A   26040.54966973  .00006542  00000+0  73417-3 0  9999
2 67363  97.8009  41.1945 0008473 189.0324 171.0741 14.87088070  4304
LEMUR-2-CALLUM-K-J      
1 67364U 26004B   26040.54766361  .00006428  00000+0  71915-3 0  9993
2 67364  97.8012  41.1976 0008456 184.5573 175.5567 14.87221992  4318
LEMUR-2-MARIO-SOUSA     
1 67365U 26004C   26040.54725510  .00006521  00000+0  72903-3 0  9997
2 67365  97.7987  41.1929 0008004 189.5289 170.5777 14.87243220  4311
TWILIGHT D              
1 67366U 26004D   26040.47992004  .00004796  00000+0  53888-3 0  9997
2 67366  97.8046  41.1393 0008627 179.5390 180.5835 14.87166214  4309
LEMUR-2-SONNENBLUME     
1 67367U 26004E   26040.61228837  .00006703  00000+0  74709-3 0  9995
2 67367  97.7975  41.2590 0007474 190.5290 169.5771 14.87362820  4320
LEMUR-2-WOBLER          
1 67368U 26004F   26040.61162187  .00006047  00000+0  67429-3 0  9993
2 67368  97.8035  41.2738 0007998 179.6864 180.4359 14.87381387  4322
TWILIGHT G              
1 67369U 26004G   26040.61125831  .00003520  00000+0  39597-3 0  9997
2 67369  97.7966  41.2590 0006799 193.0773 167.0268 14.87296362  4326
LEMUR-2-GRAM-E-SUE      
1 67370U 26004H   26040.54216960  .00006296  00000+0  69995-3 0  9993
2 67370  97.7963  41.1943 0006572 191.6325 168.4741 14.87497653  4318
UMBRA-12                
1 67371U 26004J   26040.53503782  .00006827  00000+0  75053-3 0  9996
2 67371  97.8004  41.2127 0006021 175.9865 184.1401 14.87923236  4313
ICEYE-X63               
1 67372U 26004K   26040.59766141  .00003383  00000+0  37445-3 0  9990
2 67372  97.7983  41.2791 0004241 170.3404 189.7895 14.87992506  4321
ICEYE-X64               
1 67373U 26004L   26040.53807574  .00003481  00000+0  38887-3 0  9991
2 67373  97.7998  41.2070 0005727 182.2942 177.8250 14.87593640  4315
AETHER-3                
1 67374U 26004M   26040.59878157  .00003078  00000+0  34161-3 0  9996
2 67374  97.7982  41.2762 0004512 171.0620 189.0678 14.87948027  4320
