CCSDS_OMM_VERS = 2.0
CREATION_DATE  = 
ORIGINATOR     = 

OBJECT_NAME    = LEMUR-2-KUTAR
OBJECT_ID      = 2026-004A
CENTER_NAME    = EARTH
REF_FRAME      = TEME
TIME_SYSTEM    = UTC
MEAN_ELEMENT_THEORY = SGP/SGP4

EPOCH          = 2026-02-09T13:11:31.464672
MEAN_MOTION    = 14.87088070
ECCENTRICITY   = .0008473
INCLINATION    = 97.8009
RA_OF_ASC_NODE = 41.1945
ARG_OF_PERICENTER = 189.0324
MEAN_ANOMALY   = 171.0741

EPHEMERIS_TYPE = 0
CLASSIFICATION_TYPE = U
NORAD_CAT_ID   = 67363
ELEMENT_SET_NO = 999
REV_AT_EPOCH   = 430
BSTAR          = .73416807E-3
MEAN_MOTION_DOT = .6542E-4
MEAN_MOTION_DDOT = 0

CCSDS_OMM_VERS = 2.0
CREATION_DATE  = 
ORIGINATOR     = 

OBJECT_NAME    = LEMUR-2-CALLUM-K-J
OBJECT_ID      = 2026-004B
CENTER_NAME    = EARTH
REF_FRAME      = TEME
TIME_SYSTEM    = UTC
MEAN_ELEMENT_THEORY = SGP/SGP4

EPOCH          = 2026-02-09T13:08:38.135904
MEAN_MOTION    = 14.87221992
ECCENTRICITY   = .00084562
INCLINATION    = 97.8012
RA_OF_ASC_NODE = 41.1976
ARG_OF_PERICENTER = 184.5573
MEAN_ANOMALY   = 175.5567

EPHEMERIS_TYPE = 0
CLASSIFICATION_TYPE = U
NORAD_CAT_ID   = 67364
ELEMENT_SET_NO = 999
REV_AT_EPOCH   = 431
BSTAR          = .71915222E-3
MEAN_MOTION_DOT = .6428E-4
MEAN_MOTION_DDOT = 0

CCSDS_OMM_VERS = 2.0
CREATION_DATE  = 
ORIGINATOR     = 

OBJECT_NAME    = LEMUR-2-MARIO-SOUSA
OBJECT_ID      = 2026-004C
CENTER_NAME    = EARTH
REF_FRAME      = TEME
TIME_SYSTEM    = UTC
MEAN_ELEMENT_THEORY = SGP/SGP4

EPOCH          = 2026-02-09T13:08:02.840640
MEAN_MOTION    = 14.87243220
ECCENTRICITY   = .00080049
INCLINATION    = 97.7987
RA_OF_ASC_NODE = 41.1929
ARG_OF_PERICENTER = 189.5289
MEAN_ANOMALY   = 170.5777

EPHEMERIS_TYPE = 0
CLASSIFICATION_TYPE = U
NORAD_CAT_ID   = 67365
ELEMENT_SET_NO = 999
REV_AT_EPOCH   = 431
BSTAR          = .72902785E-3
MEAN_MOTION_DOT = .6521E-4
MEAN_MOTION_DDOT = 0

CCSDS_OMM_VERS = 2.0
CREATION_DATE  = 
ORIGINATOR     = 

OBJECT_NAME    = TWILIGHT D
OBJECT_ID      = 2026-004D
CENTER_NAME    = EARTH
REF_FRAME      = TEME
TIME_SYSTEM    = UTC
MEAN_ELEMENT_THEORY = SGP/SGP4

EPOCH          = 2026-02-09T11:31:05.091456
MEAN_MOTION    = 14.87166214
ECCENTRICITY   = .0008627
INCLINATION    = 97.8046
RA_OF_ASC_NODE = 41.1393
ARG_OF_PERICENTER = 179.5390
MEAN_ANOMALY   = 180.5835

EPHEMERIS_TYPE = 0
CLASSIFICATION_TYPE = U
NORAD_CAT_ID   = 67366
ELEMENT_SET_NO = 999
REV_AT_EPOCH   = 430
BSTAR          = .53888075E-3
MEAN_MOTION_DOT = .4796E-4
MEAN_MOTION_DDOT = 0

CCSDS_OMM_VERS = 2.0
CREATION_DATE  = 
ORIGINATOR     = 

OBJECT_NAME    = LEMUR-2-SONNENBLUME
OBJECT_ID      = 2026-004E
CENTER_NAME    = EARTH
REF_FRAME      = TEME
TIME_SYSTEM    = UTC
MEAN_ELEMENT_THEORY = SGP/SGP4

EPOCH          = 2026-02-09T14:41:41.715168
MEAN_MOTION    = 14.87362820
ECCENTRICITY   = .00074745
INCLINATION    = 97.7975
RA_OF_ASC_NODE = 41.2590
ARG_OF_PERICENTER = 190.5290
MEAN_ANOMALY   = 169.5771

EPHEMERIS_TYPE = 0
CLASSIFICATION_TYPE = U
NORAD_CAT_ID   = 67367
ELEMENT_SET_NO = 999
REV_AT_EPOCH   = 432
BSTAR          = .7470902E-3
MEAN_MOTION_DOT = .6703E-4
MEAN_MOTION_DDOT = 0

CCSDS_OMM_VERS = 2.0
CREATION_DATE  = 
ORIGINATOR     = 

OBJECT_NAME    = LEMUR-2-WOBLER
OBJECT_ID      = 2026-004F
CENTER_NAME    = EARTH
REF_FRAME      = TEME
TIME_SYSTEM    = UTC
MEAN_ELEMENT_THEORY = SGP/SGP4

EPOCH          = 2026-02-09T14:40:44.129568
MEAN_MOTION    = 14.87381387
ECCENTRICITY   = .0007998
INCLINATION    = 97.8035
RA_OF_ASC_NODE = 41.2738
ARG_OF_PERICENTER = 179.6864
MEAN_ANOMALY   = 180.4359

EPHEMERIS_TYPE = 0
CLASSIFICATION_TYPE = U
NORAD_CAT_ID   = 67368
ELEMENT_SET_NO = 999
REV_AT_EPOCH   = 432
BSTAR          = .67429253E-3
MEAN_MOTION_DOT = .6047E-4
MEAN_MOTION_DDOT = 0

CCSDS_OMM_VERS = 2.0
CREATION_DATE  = 
ORIGINATOR     = 

OBJECT_NAME    = TWILIGHT G
OBJECT_ID      = 2026-004G
CENTER_NAME    = EARTH
REF_FRAME      = TEME
TIME_SYSTEM    = UTC
MEAN_ELEMENT_THEORY = SGP/SGP4

EPOCH          = 2026-02-09T14:40:12.717984
MEAN_MOTION    = 14.87296362
ECCENTRICITY   = .00067998
INCLINATION    = 97.7966
RA_OF_ASC_NODE = 41.2590
ARG_OF_PERICENTER = 193.0773
MEAN_ANOMALY   = 167.0268

EPHEMERIS_TYPE = 0
CLASSIFICATION_TYPE = U
NORAD_CAT_ID   = 67369
ELEMENT_SET_NO = 999
REV_AT_EPOCH   = 432
BSTAR          = .39597284E-3
MEAN_MOTION_DOT = .352E-4
MEAN_MOTION_DDOT = 0

CCSDS_OMM_VERS = 2.0
CREATION_DATE  = 
ORIGINATOR     = 

OBJECT_NAME    = LEMUR-2-GRAM-E-SUE
OBJECT_ID      = 2026-004H
CENTER_NAME    = EARTH
REF_FRAME      = TEME
TIME_SYSTEM    = UTC
MEAN_ELEMENT_THEORY = SGP/SGP4

EPOCH          = 2026-02-09T13:00:43.453440
MEAN_MOTION    = 14.87497653
ECCENTRICITY   = .00065725
INCLINATION    = 97.7963
RA_OF_ASC_NODE = 41.1943
ARG_OF_PERICENTER = 191.6325
MEAN_ANOMALY   = 168.4741

EPHEMERIS_TYPE = 0
CLASSIFICATION_TYPE = U
NORAD_CAT_ID   = 67370
ELEMENT_SET_NO = 999
REV_AT_EPOCH   = 431
BSTAR          = .69995417E-3
MEAN_MOTION_DOT = .6296E-4
MEAN_MOTION_DDOT = 0

CCSDS_OMM_VERS = 2.0
CREATION_DATE  = 
ORIGINATOR     = 

OBJECT_NAME    = UMBRA-12
OBJECT_ID      = 2026-004J
CENTER_NAME    = EARTH
REF_FRAME      = TEME
TIME_SYSTEM    = UTC
MEAN_ELEMENT_THEORY = SGP/SGP4

EPOCH          = 2026-02-09T12:50:27.267648
MEAN_MOTION    = 14.87923236
ECCENTRICITY   = .00060213
INCLINATION    = 97.8004
RA_OF_ASC_NODE = 41.2127
ARG_OF_PERICENTER = 175.9865
MEAN_ANOMALY   = 184.1401

EPHEMERIS_TYPE = 0
CLASSIFICATION_TYPE = U
NORAD_CAT_ID   = 67371
ELEMENT_SET_NO = 999
REV_AT_EPOCH   = 431
BSTAR          = .75053226E-3
MEAN_MOTION_DOT = .6827E-4
MEAN_MOTION_DDOT = 0

CCSDS_OMM_VERS = 2.0
CREATION_DATE  = 
ORIGINATOR     = 

OBJECT_NAME    = ICEYE-X63
OBJECT_ID      = 2026-004K
CENTER_NAME    = EARTH
REF_FRAME      = TEME
TIME_SYSTEM    = UTC
MEAN_ELEMENT_THEORY = SGP/SGP4

EPOCH          = 2026-02-09T14:20:37.945824
MEAN_MOTION    = 14.87992506
ECCENTRICITY   = .00042414
INCLINATION    = 97.7983
RA_OF_ASC_NODE = 41.2791
ARG_OF_PERICENTER = 170.3404
MEAN_ANOMALY   = 189.7895

EPHEMERIS_TYPE = 0
CLASSIFICATION_TYPE = U
NORAD_CAT_ID   = 67372
ELEMENT_SET_NO = 999
REV_AT_EPOCH   = 432
BSTAR          = .37445226E-3
MEAN_MOTION_DOT = .3383E-4
MEAN_MOTION_DDOT = 0

CCSDS_OMM_VERS = 2.0
CREATION_DATE  = 
ORIGINATOR     = 

OBJECT_NAME    = ICEYE-X64
OBJECT_ID      = 2026-004L
CENTER_NAME    = EARTH
REF_FRAME      = TEME
TIME_SYSTEM    = UTC
MEAN_ELEMENT_THEORY = SGP/SGP4

EPOCH          = 2026-02-09T12:54:49.743936
MEAN_MOTION    = 14.87593640
ECCENTRICITY   = .00057272
INCLINATION    = 97.7998
RA_OF_ASC_NODE = 41.2070
ARG_OF_PERICENTER = 182.2942
MEAN_ANOMALY   = 177.8250

EPHEMERIS_TYPE = 0
CLASSIFICATION_TYPE = U
NORAD_CAT_ID   = 67373
ELEMENT_SET_NO = 999
REV_AT_EPOCH   = 431
BSTAR          = .3888712E-3
MEAN_MOTION_DOT = .3481E-4
MEAN_MOTION_DDOT = 0

CCSDS_OMM_VERS = 2.0
CREATION_DATE  = 
ORIGINATOR     = 

OBJECT_NAME    = AETHER-3
OBJECT_ID      = 2026-004M
CENTER_NAME    = EARTH
REF_FRAME      = TEME
TIME_SYSTEM    = UTC
MEAN_ELEMENT_THEORY = SGP/SGP4

EPOCH          = 2026-02-09T14:22:14.727648
MEAN_MOTION    = 14.87948027
ECCENTRICITY   = .00045121
INCLINATION    = 97.7982
RA_OF_ASC_NODE = 41.2762
ARG_OF_PERICENTER = 171.0620
MEAN_ANOMALY   = 189.0678

EPHEMERIS_TYPE = 0
CLASSIFICATION_TYPE = U
NORAD_CAT_ID   = 67374
ELEMENT_SET_NO = 999
REV_AT_EPOCH   = 432
BSTAR          = .34161054E-3
MEAN_MOTION_DOT = .3078E-4
MEAN_MOTION_DDOT = 0

